start=new Date('2022-12-27T00:00:00.000Z').valueOf();
sats=[{"OBJECT_TYPE":"PAYLOAD","PERIOD":"95.592","REF_FRAME":"TEME","OBJECT_ID":"2020-074L","TLE_LINE2":"2 46749  53.0537 168.7200 0001579  68.9500 291.1657 15.06400938120504","ECCENTRICITY":"0.00015790","FILE":"3723236","TLE_LINE1":"1 46749U 20074L   22360.85719698 -.00000211  00000-0  47102-5 0  9993","MEAN_ANOMALY":"291.1657","INCLINATION":"53.0537","DECAY_DATE":null,"RA_OF_ASC_NODE":"168.7200","BSTAR":"0.00000471020000","ELEMENT_SET_NO":"999","SITE":"AFETR","GP_ID":"221521654","COUNTRY_CODE":"US","LAUNCH_DATE":"2020-10-24","PERIAPSIS":"546.117","EPHEMERIS_TYPE":"0","RCS_SIZE":"LARGE","NORAD_CAT_ID":"46749","MEAN_MOTION":"15.06400938","MEAN_MOTION_DOT":"-0.00000211","TIME_SYSTEM":"UTC","CENTER_NAME":"EARTH","SEMIMAJOR_AXIS":"6925.346","MEAN_ELEMENT_THEORY":"SGP4","REV_AT_EPOCH":"12050","CLASSIFICATION_TYPE":"U","OBJECT_NAME":"STARLINK-1911","APOAPSIS":"548.304","MEAN_MOTION_DDOT":"0.0000000000000","ARG_OF_PERICENTER":"68.9500","EPOCH":"2022-12-26T20:34:21.819072"},{"SITE":"AFETR","ELEMENT_SET_NO":"999","BSTAR":"0.00012883000000","RA_OF_ASC_NODE":"168.7390","RCS_SIZE":"LARGE","EPHEMERIS_TYPE":"0","PERIAPSIS":"546.338","LAUNCH_DATE":"2020-10-24","COUNTRY_CODE":"US","GP_ID":"221522404","PERIOD":"95.592","OBJECT_TYPE":"PAYLOAD","DECAY_DATE":null,"INCLINATION":"53.0525","FILE":"3723236","TLE_LINE1":"1 46751U 20074N   22360.85350735  .00001638  00000-0  12883-3 0  9998","MEAN_ANOMALY":"272.7184","ECCENTRICITY":"0.00012500","TLE_LINE2":"2 46751  53.0525 168.7390 0001250  87.3948 272.7184 15.06403115120501","REF_FRAME":"TEME","OBJECT_ID":"2020-074N","OBJECT_NAME":"STARLINK-1920","CLASSIFICATION_TYPE":"U","REV_AT_EPOCH":"12050","EPOCH":"2022-12-26T20:29:03.035040","ARG_OF_PERICENTER":"87.3948","MEAN_MOTION_DDOT":"0.0000000000000","APOAPSIS":"548.070","CENTER_NAME":"EARTH","TIME_SYSTEM":"UTC","MEAN_MOTION_DOT":"0.00001638","MEAN_MOTION":"15.06403115","NORAD_CAT_ID":"46751","MEAN_ELEMENT_THEORY":"SGP4","SEMIMAJOR_AXIS":"6925.339"},{"MEAN_MOTION_DDOT":"0.0000000000000","ARG_OF_PERICENTER":"88.6173","APOAPSIS":"548.263","EPOCH":"2022-12-26T20:44:59.165952","REV_AT_EPOCH":"12050","CLASSIFICATION_TYPE":"U","OBJECT_NAME":"STARLINK-1921","SEMIMAJOR_AXIS":"6925.363","MEAN_ELEMENT_THEORY":"SGP4","NORAD_CAT_ID":"46752","MEAN_MOTION":"15.06395323","CENTER_NAME":"EARTH","TIME_SYSTEM":"UTC","MEAN_MOTION_DOT":"-0.00000104","COUNTRY_CODE":"US","GP_ID":"221521153","LAUNCH_DATE":"2020-10-24","PERIAPSIS":"546.193","EPHEMERIS_TYPE":"0","RCS_SIZE":"LARGE","ELEMENT_SET_NO":"999","BSTAR":"0.00001189000000","RA_OF_ASC_NODE":"168.6845","SITE":"AFETR","TLE_LINE1":"1 46752U 20074P   22360.86457368 -.00000104  00000-0  11890-4 0  9996","FILE":"3723236","MEAN_ANOMALY":"271.4987","REF_FRAME":"TEME","OBJECT_ID":"2020-074P","TLE_LINE2":"2 46752  53.0534 168.6845 0001495  88.6173 271.4987 15.06395323120509","ECCENTRICITY":"0.00014950","DECAY_DATE":null,"INCLINATION":"53.0534","OBJECT_TYPE":"PAYLOAD","PERIOD":"95.592"},{"SITE":"AFETR","BSTAR":"-0.00001417200000","ELEMENT_SET_NO":"999","RA_OF_ASC_NODE":"168.8335","LAUNCH_DATE":"2020-10-24","PERIAPSIS":"546.085","RCS_SIZE":"LARGE","EPHEMERIS_TYPE":"0","COUNTRY_CODE":"US","GP_ID":"221521403","PERIOD":"95.592","OBJECT_TYPE":"PAYLOAD","DECAY_DATE":null,"INCLINATION":"53.0534","FILE":"3723236","TLE_LINE1":"1 46753U 20074Q   22360.83140237 -.00000493  00000-0 -14172-4 0  9996","MEAN_ANOMALY":"295.2571","OBJECT_ID":"2020-074Q","REF_FRAME":"TEME","TLE_LINE2":"2 46753  53.0534 168.8335 0001626  64.8587 295.2571 15.06400922120502","ECCENTRICITY":"0.00016260","OBJECT_NAME":"STARLINK-1922","REV_AT_EPOCH":"12050","CLASSIFICATION_TYPE":"U","EPOCH":"2022-12-26T19:57:13.164768","MEAN_MOTION_DDOT":"0.0000000000000","ARG_OF_PERICENTER":"64.8587","APOAPSIS":"548.337","CENTER_NAME":"EARTH","TIME_SYSTEM":"UTC","MEAN_MOTION_DOT":"-0.00000493","NORAD_CAT_ID":"46753","MEAN_MOTION":"15.06400922","MEAN_ELEMENT_THEORY":"SGP4","SEMIMAJOR_AXIS":"6925.346"},{"SITE":"AFETR","ELEMENT_SET_NO":"999","BSTAR":"0.00002130700000","RA_OF_ASC_NODE":"169.0919","LAUNCH_DATE":"2020-10-24","PERIAPSIS":"546.346","EPHEMERIS_TYPE":"0","RCS_SIZE":"LARGE","COUNTRY_CODE":"US","GP_ID":"221522154","PERIOD":"95.592","OBJECT_TYPE":"PAYLOAD","DECAY_DATE":null,"INCLINATION":"53.0543","TLE_LINE1":"1 46754U 20074R   22360.77242493  .00000036  00000-0  21307-4 0  9996","MEAN_ANOMALY":"278.5569","FILE":"3723236","REF_FRAME":"TEME","OBJECT_ID":"2020-074R","TLE_LINE2":"2 46754  53.0543 169.0919 0001256  81.5562 278.5569 15.06399285120490","ECCENTRICITY":"0.00012560","OBJECT_NAME":"STARLINK-1923","REV_AT_EPOCH":"12049","CLASSIFICATION_TYPE":"U","EPOCH":"2022-12-26T18:32:17.513952","MEAN_MOTION_DDOT":"0.0000000000000","ARG_OF_PERICENTER":"81.5562","APOAPSIS":"548.086","CENTER_NAME":"EARTH","TIME_SYSTEM":"UTC","MEAN_MOTION_DOT":"0.00000036","NORAD_CAT_ID":"46754","MEAN_MOTION":"15.06399285","MEAN_ELEMENT_THEORY":"SGP4","SEMIMAJOR_AXIS":"6925.351"},{"PERIOD":"95.592","OBJECT_TYPE":"PAYLOAD","DECAY_DATE":null,"INCLINATION":"53.0541","TLE_LINE1":"1 46755U 20074S   22360.84383837  .00001982  00000-0  15187-3 0  9992","FILE":"3723236","MEAN_ANOMALY":"301.8284","REF_FRAME":"TEME","OBJECT_ID":"2020-074S","TLE_LINE2":"2 46755  53.0541 173.7695 0002288  58.2928 301.8284 15.06409048120432","ECCENTRICITY":"0.00022880","SITE":"AFETR","BSTAR":"0.00015187000000","ELEMENT_SET_NO":"999","RA_OF_ASC_NODE":"173.7695","LAUNCH_DATE":"2020-10-24","PERIAPSIS":"545.601","EPHEMERIS_TYPE":"0","RCS_SIZE":"LARGE","COUNTRY_CODE":"US","GP_ID":"221521905","CENTER_NAME":"EARTH","MEAN_MOTION_DOT":"0.00001982","TIME_SYSTEM":"UTC","NORAD_CAT_ID":"46755","MEAN_MOTION":"15.06409048","MEAN_ELEMENT_THEORY":"SGP4","SEMIMAJOR_AXIS":"6925.321","OBJECT_NAME":"STARLINK-1924","REV_AT_EPOCH":"12043","CLASSIFICATION_TYPE":"U","EPOCH":"2022-12-26T20:15:07.635168","MEAN_MOTION_DDOT":"0.0000000000000","ARG_OF_PERICENTER":"58.2928","APOAPSIS":"548.770"},{"RCS_SIZE":"LARGE","EPHEMERIS_TYPE":"0","PERIAPSIS":"546.217","LAUNCH_DATE":"2020-10-24","GP_ID":"221520655","COUNTRY_CODE":"US","SITE":"AFETR","RA_OF_ASC_NODE":"174.0314","ELEMENT_SET_NO":"999","BSTAR":"-0.00000516300000","INCLINATION":"53.0537","DECAY_DATE":null,"TLE_LINE2":"2 46756  53.0537 174.0314 0001448  77.3699 282.7452 15.06398118120433","ECCENTRICITY":"0.00014480","OBJECT_ID":"2020-074T","REF_FRAME":"TEME","FILE":"3723236","TLE_LINE1":"1 46756U 20074T   22360.87337948 -.00000358  00000-0 -51630-5 0  9991","MEAN_ANOMALY":"282.7452","PERIOD":"95.592","OBJECT_TYPE":"PAYLOAD","EPOCH":"2022-12-26T20:57:39.987072","APOAPSIS":"548.222","ARG_OF_PERICENTER":"77.3699","MEAN_MOTION_DDOT":"0.0000000000000","OBJECT_NAME":"STARLINK-1925","CLASSIFICATION_TYPE":"U","REV_AT_EPOCH":"12043","MEAN_ELEMENT_THEORY":"SGP4","SEMIMAJOR_AXIS":"6925.354","TIME_SYSTEM":"UTC","MEAN_MOTION_DOT":"-0.00000358","CENTER_NAME":"EARTH","MEAN_MOTION":"15.06398118","NORAD_CAT_ID":"46756"},{"SITE":"AFETR","RA_OF_ASC_NODE":"173.8023","ELEMENT_SET_NO":"999","BSTAR":"0.00016693000000","EPHEMERIS_TYPE":"0","RCS_SIZE":"LARGE","PERIAPSIS":"546.234","LAUNCH_DATE":"2020-10-24","GP_ID":"221520905","COUNTRY_CODE":"US","PERIOD":"95.592","OBJECT_TYPE":"PAYLOAD","INCLINATION":"53.0552","DECAY_DATE":null,"TLE_LINE2":"2 46757  53.0552 173.8023 0001384  90.0499 270.0649 15.06406998120438","ECCENTRICITY":"0.00013840","OBJECT_ID":"2020-074U","REF_FRAME":"TEME","TLE_LINE1":"1 46757U 20074U   22360.88810275  .00002206  00000-0  16693-3 0  9992","FILE":"3723236","MEAN_ANOMALY":"270.0649","OBJECT_NAME":"STARLINK-1926","CLASSIFICATION_TYPE":"U","REV_AT_EPOCH":"12043","EPOCH":"2022-12-26T21:18:52.077600","APOAPSIS":"548.151","ARG_OF_PERICENTER":"90.0499","MEAN_MOTION_DDOT":"0.0000000000000","TIME_SYSTEM":"UTC","MEAN_MOTION_DOT":"0.00002206","CENTER_NAME":"EARTH","MEAN_MOTION":"15.06406998","NORAD_CAT_ID":"46757","SEMIMAJOR_AXIS":"6925.327","MEAN_ELEMENT_THEORY":"SGP4"},{"MEAN_MOTION":"15.06405274","NORAD_CAT_ID":"46758","CENTER_NAME":"EARTH","TIME_SYSTEM":"UTC","MEAN_MOTION_DOT":"0.00000310","MEAN_ELEMENT_THEORY":"SGP4","SEMIMAJOR_AXIS":"6925.332","CLASSIFICATION_TYPE":"U","REV_AT_EPOCH":"12044","OBJECT_NAME":"STARLINK-1928","ARG_OF_PERICENTER":"65.7370","MEAN_MOTION_DDOT":"0.0000000000000","APOAPSIS":"548.286","EPOCH":"2022-12-26T21:24:07.540416","OBJECT_TYPE":"PAYLOAD","PERIOD":"95.592","MEAN_ANOMALY":"294.3783","TLE_LINE1":"1 46758U 20074V   22360.89175394  .00000310  00000-0  39679-4 0  9994","FILE":"3723236","TLE_LINE2":"2 46758  53.0548 173.5438 0001572  65.7370 294.3783 15.06405274120442","ECCENTRICITY":"0.00015720","OBJECT_ID":"2020-074V","REF_FRAME":"TEME","DECAY_DATE":null,"INCLINATION":"53.0548","ELEMENT_SET_NO":"999","BSTAR":"0.00003967900000","RA_OF_ASC_NODE":"173.5438","SITE":"AFETR","COUNTRY_CODE":"US","GP_ID":"221521655","RCS_SIZE":"LARGE","EPHEMERIS_TYPE":"0","PERIAPSIS":"546.109","LAUNCH_DATE":"2020-10-24"},{"REV_AT_EPOCH":"12029","CLASSIFICATION_TYPE":"U","OBJECT_NAME":"STARLINK-1833","MEAN_MOTION_DDOT":"0.0000000000000","ARG_OF_PERICENTER":"67.3716","APOAPSIS":"548.212","EPOCH":"2022-12-26T21:17:28.356000","NORAD_CAT_ID":"46759","MEAN_MOTION":"15.06420091","CENTER_NAME":"EARTH","TIME_SYSTEM":"UTC","MEAN_MOTION_DOT":"0.00001883","MEAN_ELEMENT_THEORY":"SGP4","SEMIMAJOR_AXIS":"6925.287","ELEMENT_SET_NO":"999","BSTAR":"0.00014519000000","RA_OF_ASC_NODE":"183.5912","SITE":"AFETR","COUNTRY_CODE":"US","GP_ID":"221522405","PERIAPSIS":"546.092","LAUNCH_DATE":"2020-10-24","EPHEMERIS_TYPE":"0","RCS_SIZE":"LARGE","OBJECT_TYPE":"PAYLOAD","PERIOD":"95.591","MEAN_ANOMALY":"292.7434","TLE_LINE1":"1 46759U 20074W   22360.88713375  .00001883  00000-0  14519-3 0  9992","FILE":"3723236","OBJECT_ID":"2020-074W","REF_FRAME":"TEME","ECCENTRICITY":"0.00015300","TLE_LINE2":"2 46759  53.0540 183.5912 0001530  67.3716 292.7434 15.06420091120291","DECAY_DATE":null,"INCLINATION":"53.0540"}];
